ALSAT-1N
1 41789U 16059G   25066.10057344  .00001484  00000-0  26591-3 0  9996
2 41789  97.8126  85.5558 0025254 238.7930 121.0800 14.67999150451441
CAS-2T & KS-1Q
1 41847U 16066G   25065.63852699  .00002569  00000-0  37216-3 0  9993
2 41847  98.4279 140.9193 0348697 105.6364 258.3587 14.43080474437326
GOES-16
1 41866U 16071A   25064.52961274 -.00000255  00000-0  00000-0 0  9996
2 41866   0.0850 286.8195 0001772  71.8195 280.2937  1.00269200 30405
FENGYUN-4A
1 41882U 16077A   25064.77181397 -.00000142  00000-0  00000-0 0  9992
2 41882   1.1256  85.2089 0004762 172.6115 332.1954  1.00660302 30237
FOX-1B (AO-91)
1 43017U 17073E   25065.70074130  .00010896  00000-0  57908-3 0  9999
2 43017  97.5445 298.9312 0182010 128.9091 232.8524 15.02228159394958
CANX-2
1 32790U 08021H   25065.44896682  .00006851  00000-0  55131-3 0  9995
2 32790  97.8015  34.6219 0012897 153.5165 206.6720 15.00231185914622
AIST-2 (RS-43)
1 39133U 13015D   25066.13155393  .00007818  00000-0  37667-3 0  9994
2 39133  64.8735 336.4121 0027322 290.5289  69.2906 15.19070496653227
NANOSATC-BR1
1 40024U 14033Q   25065.54040743  .00017937  00000-0  97609-3 0  9997
2 40024  98.0896  57.1240 0005759  30.5087 329.6477 15.14504839583329
QB50P1
1 40025U 14033R   25065.48189662  .00013371  00000-0  87309-3 0  9999
2 40025  98.0765  42.9903 0012044  28.5430 331.6454 15.07919294582297
QB50P2
1 40032U 14033Y   25065.71967830  .00012267  00000-0  84360-3 0  9991
2 40032  98.0345  32.9357 0007812 335.1789  24.9059 15.06051825582088
PERSEUS-M2
1 40037U 14033AD  25066.10102294  .00003478  00000-0  33926-3 0  9991
2 40037  97.9474   4.5878 0013895  52.2372 308.0103 14.93051549581522
PERSEUS-M1
1 40039U 14033AF  25065.54889791  .00003838  00000-0  37439-3 0  9997
2 40039  97.9226 359.2961 0013664  53.0159 307.2308 14.92985016581306
POLYITAN-1
1 40042U 14033AJ  25066.16794724  .00017845  00000-0  97214-3 0  9991
2 40042  98.0994  50.0175 0009088 339.0095  21.0761 15.14447248582982
TIGRISAT
1 40043U 14033AK  25065.71297177  .00005133  00000-0  63613-3 0  9995
2 40043  97.7215 224.1568 0052674 165.7017 194.5702 14.82118319576300
UKUBE-1
1 40074U 14037F   25065.44842503  .00012156  00000-0  91560-3 0  9997
2 40074  98.3846  19.6875 0001983  67.1013 293.0419 15.02664868578048
DEORBITSAIL
1 40719U 15032E   25065.54449760  .00010686  00000-0  99211-3 0  9995
2 40719  97.6553 287.3650 0011701 352.0030   8.1002 14.94525272521170
HORYU-IV
1 41340U 16012D   25065.62541182  .00026935  00000-0  87187-3 0  9998
2 41340  31.0001  47.9314 0007419 167.5681 192.5146 15.30814740498194
D-SAT
1 42794U 17036AF  25065.69901899  .00013166  00000-0  77132-3 0  9992
2 42794  97.5067  45.5307 0096268 334.6004  25.0508 15.08023136420181
CORVUS-BC2
1 42846U 17042X   25065.40586887  .00005308  00000-0  41144-3 0  9995
2 42846  97.3708 242.6679 0011715 259.6416 100.3489 15.01749288416746
CORVUS-BC1
1 42847U 17042Y   25065.53885399  .00005359  00000-0  41294-3 0  9992
2 42847  97.3733 243.2518 0011037 234.1636 125.8565 15.01975580416780
APRIZESAT-5 
1 37792U 11044E   25065.68268163  .00002048  00000-0  27444-3 0  9994
2 37792  98.2328 341.6380 0055219  67.6259 293.0791 14.79521174729622
APRIZESAT-6
1 37793U 11044F   25065.71495738  .00001327  00000-0  19882-3 0  9995
2 37793  98.2715 321.2759 0044889 138.7656 285.3211 14.75754511728178
APRIZESAT-7
1 39416U 13066A   25065.82714957  .00003384  00000-0  35618-3 0  9994
2 39416  97.7093  23.2844 0036135 322.2678  37.6006 14.89573738611602
APRIZESAT-8
1 39425U 13066K   25065.71175814  .00002504  00000-0  28691-3 0  9991
2 39425  97.7650  16.9693 0048248  25.5612 334.7974 14.85986735610202
BUGSAT-1 (TITA)
1 40014U 14033E   25065.73094239  .00006522  00000-0  40875-3 0  9997
2 40014  98.0863 127.1398 0031232 331.5996  28.3527 15.09322946585177
SAUDISAT-4
1 40016U 14033G   25065.70681649  .00001805  00000-0  25008-3 0  9993
2 40016  97.6928 225.2124 0046374 153.5603 206.7989 14.78425619576971
TABLETSAT-AURORA
1 40017U 14033H   25066.13225103  .00008415  00000-0  52774-3 0  9995
2 40017  98.0876 108.6524 0013452  11.1737 348.9786 15.09526364584567
APRIZESAT-9
1 40018U 14033J   25065.34224481  .00001462  00000-0  22700-3 0  9997
2 40018  97.8364 207.1973 0066215 264.4608  94.9045 14.73141629574657
APRIZESAT-10
1 40019U 14033K   25065.64909845  .00001000  00000-0  16753-3 0  9994
2 40019  97.8998 200.0802 0079372 327.6946  31.9412 14.69945088573541
AISAT
1 40054U 14034B   25066.10643670  .00009738  00000-0  84287-3 0  9990
2 40054  98.3022 302.4666 0008743 346.7526  13.3463 14.97351865577043
COSMOS-2407 [+]
1 28380U 04028A   25066.12134215  .00000090  00000-0  75574-4 0  9994
2 28380  82.9572  60.7109 0040502 117.7101 315.9857 13.76275401 35820
COSMOS-2414 [+]
1 28521U 05002A   25065.43870127  .00000095  00000-0  66205-4 0  9992
2 28521  82.9496  37.4040 0039095 221.7667 138.0511 13.87856543 18933
COSMOS-2463 [+]
1 36519U 10017A   25065.74035826  .00000092  00000-0  84657-4 0  9991
2 36519  82.9580 233.1440 0035828 349.2267  21.6875 13.71615156743856
NOAA-15
1 25338U 98030A   25065.72911952  .00000285  00000-0  13513-3 0  9996
2 25338  98.5463  93.0989 0009127 277.2233  82.7910 14.26901313394622
NOAA-18
1 28654U 05018A   25066.12822425  .00000265  00000-0  16409-3 0  9990
2 28654  98.8477 146.6548 0014635  41.5465 318.6817 14.13533909 20406
NOAA-19
1 33591U 09005A   25065.69443689  .00000254  00000-0  15965-3 0  9992
2 33591  99.0092 129.8260 0012775 271.2345  88.7364 14.13301768828442
SARAL
1 39086U 13009A   25065.76938804  .00000219  00000-0  96476-4 0  9990
2 39086  98.5530 253.3483 0001312 195.6541 164.4602 14.32672193628674
HODOYOSHI-1
1 40299U 14070B   25066.15990739  .00963061  59404-3  79429-3 0  9992
2 40299  97.0712 135.3705 0003696 231.8272 128.2682 16.14144189576281
LAPAN-A3
1 41603U 16040E   25065.76164822  .00005355  00000-0  19382-3 0  9993
2 41603  97.1406  74.1414 0009397 242.6718 117.3567 15.28774302483297
BIROS
1 41604U 16040F   25065.58986220  .00033275  00000-0  50497-3 0  9992
2 41604  97.0985  94.7698 0007422 151.7644 208.4015 15.54504000484708
METOP-A
1 29499U 06044A   25066.18730856  .00003617  00000-0  43559-3 0  9990
2 29499  98.3311 154.3439 0182038 115.7632 277.7482 14.73390109959474
METEOR M1
1 35865U 09049A   25065.72368890  .00000240  00000-0  12606-3 0  9994
2 35865  98.6736  28.4110 0001621 193.4895 166.6240 14.22965669802761
METOP-B
1 38771U 12049A   25066.14621450  .00000167  00000-0  95889-4 0  9991
2 38771  98.5909 122.9646 0000376 117.0972 243.0244 14.21445814646909
METEOR M2
1 40069U 14037A   25066.14435151  .00000258  00000-0  13754-3 0  9995
2 40069  98.4616  54.9668 0005000 324.5565  35.5280 14.21234010552977
CSSWE
1 38761U 12048D   25065.72631752  .00021059  00000-0  81260-3 0  9998
2 38761  64.6638 206.1971 0119207 300.1506  58.7850 15.19888299 44811
MCUBED-2
1 39469U 13072H   25065.76909670  .00013649  00000-0  72627-3 0  9996
2 39469 120.4932   7.2742 0172899 229.7502 128.8326 15.03733971 47199
IPEX
1 39471U 13072K   25065.73532704  .00010199  00000-0  62139-3 0  9990
2 39471 120.4674 336.4178 0186777 222.4540 136.1940 14.97762089 44967
FOX-1A (AO-85)
1 40967U 15058D   25065.74031537  .00004377  00000-0  38562-3 0  9991
2 40967  64.7757 287.6591 0174828 225.1101 133.5706 14.86758492 43965
OOREOS
1 37224U 10062C   25065.70274626  .00004424  00000-0  45682-3 0  9991
2 37224  71.9713  56.8909 0017078 241.9471 117.9971 14.90570181 46906
STARS (KUKAI)
1 33498U 09002G   25065.71183064  .00006237  00000-0  64482-3 0  9991
2 33498  98.1209 352.0765 0007414 271.7312  88.3056 14.90467385868712
YUBELEINY-2 (RS-40)
1 38735U 12041C   25065.73530751  .00000029  00000-0  14032-3 0  9997
2 38735  82.4815   6.1619 0017938  10.5278 349.6173 12.42627207571784
AIST-1
1 39492U 13078C   25065.74003805  .00003255  00000-0  30290-3 0  9993
2 39492  82.4196   2.9916 0019005  46.5049 313.7747 14.93892622605402
VELOX-1
1 40057U 14034E   25066.11579632  .00006143  00000-0  61787-3 0  9997
2 40057  98.3079 300.5746 0008796  15.7350 344.4139 14.91585345576821
DX1
1 40071U 14037C   25065.73670076  .00003452  00000-0  38754-3 0  9995
2 40071  98.3383 356.6639 0007635   4.7673 355.3613 14.87471188576557
AAUSAT CUBESAT 2
1 32788U 08021F   25065.48595499  .00109851  00000-0  17451-2 0  9994
2 32788  97.6069  58.2809 0004365  86.5153 273.6598 15.52937966918466
COSMOS-2491 (RS-46) [i]
1 39497U 13076E   25066.12001843  .00000013  00000-0  23391-4 0  9993
2 39497  82.4807  99.5869 0013523  34.9009 325.2955 12.43486697507966
COSMOS-2499 (RS-47) [i]
1 39765U 14028E   25066.12936635  .00000037  00000-0  95087-4 0  9992
2 39765  82.4505 207.5758 0231684  18.4366 342.4960 12.82887272505355
TRANSIT 5B-5
1 00965U 64083D   25065.68733994  .00000129  00000-0  16744-3 0  9995
2 00965  90.0586 199.7180 0040762 202.5543 280.3060 13.56949608980204
EUTELSAT 1-F4 (ECS 4)
1 18351U 87078B   25063.72892019 -.00000119  00000-0  00000-0 0  9994
2 18351  14.1637 345.4204 0010765  25.2904 162.1870  0.98688134122125
BISONSAT
1 40968U 15058E   25065.65205870  .00006649  00000-0  54174-3 0  9996
2 40968  64.7756 277.4030 0165935 224.1294 134.6482 14.90104407 46840
DTUSAT-2
1 40030U 14033W   25065.62793681  .00011128  00000-0  76746-3 0  9994
2 40030  98.0462  33.0562 0011024  34.9679 325.2268 15.05947724582099
ELEKTRO-L2
1 41105U 15074A   25064.53566769 -.00000124  00000-0  00000-0 0  9990
2 41105   5.5079  76.2855 0003290 221.2707  44.2497  1.00271954 33800
DOVE-3
1 39429U 13066P   25065.65855765  .00004842  00000-0  68600-3 0  9999
2 39429  97.7262 303.8771 0123043  96.8204 264.7022 14.72348150602111
FORTE
1 24920U 97047A   25065.74817195  .00000405  00000-0  18726-3 0  9990
2 24920  69.9557 349.5753 0023391 202.5425 157.4672 14.27606229431968
DMSP 5D-2 F15/USA-147
1 25991U 99067A   25065.73154221  .00000240  00000-0  14153-3 0  9993
2 25991  99.0500  92.0824 0008957 249.0486 256.4562 14.17310015304424
